{
  "type": "FeatureCollection",
  "features": [
    {
      "type": "Feature",
      "properties": {
        "norad_id": 30004,
        "name": "FENGYUN 1C DEB",
        "group": "fengyun-1c-debris",
        "lat": 47.59712908392792,
        "lon": 152.07265618427044,
        "alt_km": 813.2881760581267,
        "timestamp": "2025-12-07T09:35:10.063415+00:00",
        "meta_object_name": "FENGYUN 1C DEB",
        "meta_object_id": "1999-025MD",
        "meta_epoch": "2025-12-06T23:48:28.633248",
        "meta_mean_motion": 14.17035839,
        "meta_eccentricity": 0.00387021,
        "meta_inclination": 99.2231,
        "meta_ra_of_asc_node": 161.8991,
        "meta_arg_of_pericenter": 359.101,
        "meta_mean_anomaly": 131.8005,
        "meta_ephemeris_type": 0,
        "meta_classification_type": "U",
        "meta_norad_cat_id": 30004,
        "meta_element_set_no": 999,
        "meta_rev_at_epoch": 97225,
        "meta_bstar": 0.0011360174,
        "meta_mean_motion_dot": 2.254e-05,
        "meta_mean_motion_ddot": 0,
        "tle_line1": "1 30004U 99025MD  25340.99199807  .00002254  00000+0  11360-2 0  9993",
        "tle_line2": "2 30004  99.2231 161.8991 0038702 359.1010 131.8005 14.17035839972253"
      },
      "geometry": {
        "type": "Point",
        "coordinates": [
          152.07265618427044,
          47.59712908392792
        ]
      }
    },
    {
      "type": "Feature",
      "properties": {
        "norad_id": 30005,
        "name": "FENGYUN 1C DEB",
        "group": "fengyun-1c-debris",
        "lat": 41.39762774938292,
        "lon": -64.63189949485243,
        "alt_km": 943.3406933271244,
        "timestamp": "2025-12-07T09:35:10.063426+00:00",
        "meta_object_name": "FENGYUN 1C DEB",
        "meta_object_id": "1999-025ME",
        "meta_epoch": "2025-12-06T20:56:57.618240",
        "meta_mean_motion": 13.52198426,
        "meta_eccentricity": 0.0346583,
        "meta_inclination": 99.3015,
        "meta_ra_of_asc_node": 303.18,
        "meta_arg_of_pericenter": 108.1998,
        "meta_mean_anomaly": 255.7187,
        "meta_ephemeris_type": 0,
        "meta_classification_type": "U",
        "meta_norad_cat_id": 30005,
        "meta_element_set_no": 999,
        "meta_rev_at_epoch": 92867,
        "meta_bstar": 0.0016810196,
        "meta_mean_motion_dot": 1.578e-05,
        "meta_mean_motion_ddot": 0,
        "tle_line1": "1 30005U 99025ME  25340.87288910  .00001578  00000+0  16810-2 0  9998",
        "tle_line2": "2 30005  99.3015 303.1800 0346583 108.1998 255.7187 13.52198426928675"
      },
      "geometry": {
        "type": "Point",
        "coordinates": [
          -64.63189949485243,
          41.39762774938292
        ]
      }
    },
    {
      "type": "Feature",
      "properties": {
        "norad_id": 30007,
        "name": "FENGYUN 1C DEB",
        "group": "fengyun-1c-debris",
        "lat": -54.682884217761,
        "lon": -104.30858433784624,
        "alt_km": 810.1023932548596,
        "timestamp": "2025-12-07T09:35:10.063436+00:00",
        "meta_object_name": "FENGYUN 1C DEB",
        "meta_object_id": "1999-025MG",
        "meta_epoch": "2025-12-06T17:15:05.914944",
        "meta_mean_motion": 14.2533937,
        "meta_eccentricity": 0.00656587,
        "meta_inclination": 99.1782,
        "meta_ra_of_asc_node": 241.7885,
        "meta_arg_of_pericenter": 31.5529,
        "meta_mean_anomaly": 23.1312,
        "meta_ephemeris_type": 0,
        "meta_classification_type": "U",
        "meta_norad_cat_id": 30007,
        "meta_element_set_no": 999,
        "meta_rev_at_epoch": 97270,
        "meta_bstar": 0.0030796496,
        "meta_mean_motion_dot": 7.38e-05,
        "meta_mean_motion_ddot": 0,
        "tle_line1": "1 30007U 99025MG  25340.71881846  .00007380  00000+0  30796-2 0  9996",
        "tle_line2": "2 30007  99.1782 241.7885 0065658  31.5529  23.1312 14.25339370972702"
      },
      "geometry": {
        "type": "Point",
        "coordinates": [
          -104.30858433784624,
          -54.682884217761
        ]
      }
    },
    {
      "type": "Feature",
      "properties": {
        "norad_id": 30008,
        "name": "FENGYUN 1C DEB",
        "group": "fengyun-1c-debris",
        "lat": 42.293926079130685,
        "lon": 125.66432074948388,
        "alt_km": 661.5824545648447,
        "timestamp": "2025-12-07T09:35:10.063446+00:00",
        "meta_object_name": "FENGYUN 1C DEB",
        "meta_object_id": "1999-025MH",
        "meta_epoch": "2025-12-06T20:09:50.593824",
        "meta_mean_motion": 14.66095514,
        "meta_eccentricity": 0.00385874,
        "meta_inclination": 99.3688,
        "meta_ra_of_asc_node": 296.3886,
        "meta_arg_of_pericenter": 210.8151,
        "meta_mean_anomaly": 216.4904,
        "meta_ephemeris_type": 0,
        "meta_classification_type": "U",
        "meta_norad_cat_id": 30008,
        "meta_element_set_no": 999,
        "meta_rev_at_epoch": 98973,
        "meta_bstar": 0.0038501958,
        "meta_mean_motion_dot": 0.00021378,
        "meta_mean_motion_ddot": 0,
        "tle_line1": "1 30008U 99025MH  25340.84016891  .00021378  00000+0  38502-2 0  9997",
        "tle_line2": "2 30008  99.3688 296.3886 0038587 210.8151 216.4904 14.66095514989730"
      },
      "geometry": {
        "type": "Point",
        "coordinates": [
          125.66432074948388,
          42.293926079130685
        ]
      }
    },
    {
      "type": "Feature",
      "properties": {
        "norad_id": 30009,
        "name": "FENGYUN 1C DEB",
        "group": "fengyun-1c-debris",
        "lat": -63.74559537875486,
        "lon": 55.133068428773335,
        "alt_km": 858.1204583049239,
        "timestamp": "2025-12-07T09:35:10.063456+00:00",
        "meta_object_name": "FENGYUN 1C DEB",
        "meta_object_id": "1999-025MJ",
        "meta_epoch": "2025-12-06T21:55:39.301248",
        "meta_mean_motion": 14.04836735,
        "meta_eccentricity": 0.00638129,
        "meta_inclination": 99.0151,
        "meta_ra_of_asc_node": 35.8752,
        "meta_arg_of_pericenter": 352.1185,
        "meta_mean_anomaly": 7.8973,
        "meta_ephemeris_type": 0,
        "meta_classification_type": "U",
        "meta_norad_cat_id": 30009,
        "meta_element_set_no": 999,
        "meta_rev_at_epoch": 96401,
        "meta_bstar": 0.0010293197,
        "meta_mean_motion_dot": 1.638e-05,
        "meta_mean_motion_ddot": 0,
        "tle_line1": "1 30009U 99025MJ  25340.91364932  .00001638  00000+0  10293-2 0  9992",
        "tle_line2": "2 30009  99.0151  35.8752 0063812 352.1185   7.8973 14.04836735964019"
      },
      "geometry": {
        "type": "Point",
        "coordinates": [
          55.133068428773335,
          -63.74559537875486
        ]
      }
    },
    {
      "type": "Feature",
      "properties": {
        "norad_id": 30010,
        "name": "FENGYUN 1C DEB",
        "group": "fengyun-1c-debris",
        "lat": 76.91329162315692,
        "lon": 36.78424541059471,
        "alt_km": 831.2146508245323,
        "timestamp": "2025-12-07T09:35:10.063466+00:00",
        "meta_object_name": "FENGYUN 1C DEB",
        "meta_object_id": "1999-025MK",
        "meta_epoch": "2025-12-06T12:57:31.868352",
        "meta_mean_motion": 14.24980929,
        "meta_eccentricity": 0.00724714,
        "meta_inclination": 99.0701,
        "meta_ra_of_asc_node": 172.4901,
        "meta_arg_of_pericenter": 227.3417,
        "meta_mean_anomaly": 146.234,
        "meta_ephemeris_type": 0,
        "meta_classification_type": "U",
        "meta_norad_cat_id": 30010,
        "meta_element_set_no": 999,
        "meta_rev_at_epoch": 98172,
        "meta_bstar": 0.00026031856,
        "meta_mean_motion_dot": 5.78e-06,
        "meta_mean_motion_ddot": 0,
        "tle_line1": "1 30010U 99025MK  25340.53995218  .00000578  00000+0  26032-3 0  9990",
        "tle_line2": "2 30010  99.0701 172.4901 0072471 227.3417 146.2340 14.24980929981728"
      },
      "geometry": {
        "type": "Point",
        "coordinates": [
          36.78424541059471,
          76.91329162315692
        ]
      }
    },
    {
      "type": "Feature",
      "properties": {
        "norad_id": 30012,
        "name": "FENGYUN 1C DEB",
        "group": "fengyun-1c-debris",
        "lat": 79.10842177486825,
        "lon": -25.5280545222617,
        "alt_km": 909.268143329502,
        "timestamp": "2025-12-07T09:35:10.063477+00:00",
        "meta_object_name": "FENGYUN 1C DEB",
        "meta_object_id": "1999-025MM",
        "meta_epoch": "2025-12-06T21:54:58.533408",
        "meta_mean_motion": 13.85759187,
        "meta_eccentricity": 0.01369291,
        "meta_inclination": 99.4649,
        "meta_ra_of_asc_node": 34.0868,
        "meta_arg_of_pericenter": 161.1178,
        "meta_mean_anomaly": 20.5494,
        "meta_ephemeris_type": 0,
        "meta_classification_type": "U",
        "meta_norad_cat_id": 30012,
        "meta_element_set_no": 999,
        "meta_rev_at_epoch": 95467,
        "meta_bstar": 0.0004928266,
        "meta_mean_motion_dot": 5.62e-06,
        "meta_mean_motion_ddot": 0,
        "tle_line1": "1 30012U 99025MM  25340.91317747  .00000562  00000+0  49283-3 0  9995",
        "tle_line2": "2 30012  99.4649  34.0868 0136929 161.1178  20.5494 13.85759187954672"
      },
      "geometry": {
        "type": "Point",
        "coordinates": [
          -25.5280545222617,
          79.10842177486825
        ]
      }
    }
  ]
}